ONEWEB-0705             
1 61610U 24188S   25365.16427999  .00000452  00000+0  12599-2 0  9993
2 61610  87.8805  69.7456 0001944 139.0340 221.0933 13.10376709 53451
ONEWEB-0706             
1 61611U 24188T   25365.22568416 -.00000296  00000+0 -88454-3 0  9993
2 61611  87.8797  69.7527 0001296 122.4587 237.6666 13.10376742 61384
ONEWEB-0707             
1 61612U 24188U   25365.23233087  .00000039  00000+0  74700-4 0  9991
2 61612  87.8806  69.7309 0001248 119.1875 240.9378 13.10377646 61329
ONEWEB-0708             
1 61613U 24188V   25365.25060945  .00000686  00000+0  19293-2 0  9997
2 61613  87.8793  69.7606 0002000 119.1431 240.9897 13.10374729 61303
