[{"OBJECT_NAME":"ONEWEB-0705","OBJECT_ID":"2024-188S","EPOCH":"2025-12-31T03:56:33.791136","MEAN_MOTION":13.10376709,"ECCENTRICITY":0.00019446,"INCLINATION":87.8805,"RA_OF_ASC_NODE":69.7456,"ARG_OF_PERICENTER":139.034,"MEAN_ANOMALY":221.0933,"EPHEMERIS_TYPE":0,"CLASSIFICATION_TYPE":"U","NORAD_CAT_ID":61610,"ELEMENT_SET_NO":999,"REV_AT_EPOCH":5345,"BSTAR":0.0012598673,"MEAN_MOTION_DOT":4.52e-6,"MEAN_MOTION_DDOT":0},{"OBJECT_NAME":"ONEWEB-0706","OBJECT_ID":"2024-188T","EPOCH":"2025-12-31T05:24:59.111424","MEAN_MOTION":13.10376742,"ECCENTRICITY":0.00012966,"INCLINATION":87.8797,"RA_OF_ASC_NODE":69.7527,"ARG_OF_PERICENTER":122.4587,"MEAN_ANOMALY":237.6666,"EPHEMERIS_TYPE":0,"CLASSIFICATION_TYPE":"U","NORAD_CAT_ID":61611,"ELEMENT_SET_NO":999,"REV_AT_EPOCH":6138,"BSTAR":-0.00088454042,"MEAN_MOTION_DOT":-2.96e-6,"MEAN_MOTION_DDOT":0},{"OBJECT_NAME":"ONEWEB-0707","OBJECT_ID":"2024-188U","EPOCH":"2025-12-31T05:34:33.387168","MEAN_MOTION":13.10377646,"ECCENTRICITY":0.00012482,"INCLINATION":87.8806,"RA_OF_ASC_NODE":69.7309,"ARG_OF_PERICENTER":119.1875,"MEAN_ANOMALY":240.9378,"EPHEMERIS_TYPE":0,"CLASSIFICATION_TYPE":"U","NORAD_CAT_ID":61612,"ELEMENT_SET_NO":999,"REV_AT_EPOCH":6132,"BSTAR":7.4699553e-5,"MEAN_MOTION_DOT":3.9e-7,"MEAN_MOTION_DDOT":0},{"OBJECT_NAME":"ONEWEB-0708","OBJECT_ID":"2024-188V","EPOCH":"2025-12-31T06:00:52.656480","MEAN_MOTION":13.10374729,"ECCENTRICITY":0.00020005,"INCLINATION":87.8793,"RA_OF_ASC_NODE":69.7606,"ARG_OF_PERICENTER":119.1431,"MEAN_ANOMALY":240.9897,"EPHEMERIS_TYPE":0,"CLASSIFICATION_TYPE":"U","NORAD_CAT_ID":61613,"ELEMENT_SET_NO":999,"REV_AT_EPOCH":6130,"BSTAR":0.0019293463,"MEAN_MOTION_DOT":6.86e-6,"MEAN_MOTION_DDOT":0}]
